[{"OBJECT_NAME":"STARLINK-36388","OBJECT_ID":"2026-040Y","EPOCH":"2026-03-15T22:00:01.999584","MEAN_MOTION":15.90882137,"ECCENTRICITY":0.00011487,"INCLINATION":97.2769,"RA_OF_ASC_NODE":23.649,"ARG_OF_PERICENTER":88.5958,"MEAN_ANOMALY":277.861,"EPHEMERIS_TYPE":0,"CLASSIFICATION_TYPE":"U","NORAD_CAT_ID":68037,"ELEMENT_SET_NO":999,"REV_AT_EPOCH":337,"BSTAR":-0.0060342957,"MEAN_MOTION_DOT":-0.01859709,"MEAN_MOTION_DDOT":0.0009404847},{"OBJECT_NAME":"STARLINK-36895","OBJECT_ID":"2026-040Z","EPOCH":"2026-03-15T22:00:01.999584","MEAN_MOTION":15.90741035,"ECCENTRICITY":0.00011952,"INCLINATION":97.274,"RA_OF_ASC_NODE":23.6413,"ARG_OF_PERICENTER":95.5643,"MEAN_ANOMALY":257.3744,"EPHEMERIS_TYPE":0,"CLASSIFICATION_TYPE":"U","NORAD_CAT_ID":68038,"ELEMENT_SET_NO":999,"REV_AT_EPOCH":342,"BSTAR":-0.0054527174,"MEAN_MOTION_DOT":-0.01670636,"MEAN_MOTION_DDOT":0.00076923151},{"OBJECT_NAME":"STARLINK-36373","OBJECT_ID":"2026-040AA","EPOCH":"2026-03-15T22:00:01.999584","MEAN_MOTION":15.90717561,"ECCENTRICITY":0.00012028,"INCLINATION":97.2737,"RA_OF_ASC_NODE":23.6398,"ARG_OF_PERICENTER":93.4418,"MEAN_ANOMALY":254.7524,"EPHEMERIS_TYPE":0,"CLASSIFICATION_TYPE":"U","NORAD_CAT_ID":68039,"ELEMENT_SET_NO":999,"REV_AT_EPOCH":337,"BSTAR":-0.0054052024,"MEAN_MOTION_DOT":-0.01654302,"MEAN_MOTION_DDOT":0.00075515465},{"OBJECT_NAME":"STARLINK-36711","OBJECT_ID":"2026-041A","EPOCH":"2026-03-15T22:00:01.999584","MEAN_MOTION":15.75264098,"ECCENTRICITY":0.00012093,"INCLINATION":53.1595,"RA_OF_ASC_NODE":30.9821,"ARG_OF_PERICENTER":94.7924,"MEAN_ANOMALY":223.6172,"EPHEMERIS_TYPE":0,"CLASSIFICATION_TYPE":"U","NORAD_CAT_ID":68040,"ELEMENT_SET_NO":999,"REV_AT_EPOCH":337,"BSTAR":-0.00031018978,"MEAN_MOTION_DOT":-0.00047971,"MEAN_MOTION_DDOT":0},{"OBJECT_NAME":"STARLINK-36825","OBJECT_ID":"2026-041B","EPOCH":"2026-03-15T22:00:01.999584","MEAN_MOTION":15.80864644,"ECCENTRICITY":0.00015217,"INCLINATION":53.1591,"RA_OF_ASC_NODE":30.9163,"ARG_OF_PERICENTER":91.5545,"MEAN_ANOMALY":258.2464,"EPHEMERIS_TYPE":0,"CLASSIFICATION_TYPE":"U","NORAD_CAT_ID":68041,"ELEMENT_SET_NO":999,"REV_AT_EPOCH":337,"BSTAR":0.00031637494,"MEAN_MOTION_DOT":0.0006217,"MEAN_MOTION_DDOT":0},{"OBJECT_NAME":"STARLINK-36925","OBJECT_ID":"2026-041C","EPOCH":"2026-03-15T22:00:01.999584","MEAN_MOTION":15.75262296,"ECCENTRICITY":0.00011239,"INCLINATION":53.1597,"RA_OF_ASC_NODE":30.985,"ARG_OF_PERICENTER":100.7146,"MEAN_ANOMALY":215.8247,"EPHEMERIS_TYPE":0,"CLASSIFICATION_TYPE":"U","NORAD_CAT_ID":68042,"ELEMENT_SET_NO":999,"REV_AT_EPOCH":337,"BSTAR":-0.00017733491,"MEAN_MOTION_DOT":-0.00027761,"MEAN_MOTION_DDOT":0},{"OBJECT_NAME":"STARLINK-36902","OBJECT_ID":"2026-041D","EPOCH":"2026-03-15T22:00:01.999584","MEAN_MOTION":15.80877363,"ECCENTRICITY":0.00013825,"INCLINATION":53.159,"RA_OF_ASC_NODE":30.909,"ARG_OF_PERICENTER":64.0045,"MEAN_ANOMALY":290.0569,"EPHEMERIS_TYPE":0,"CLASSIFICATION_TYPE":"U","NORAD_CAT_ID":68043,"ELEMENT_SET_NO":999,"REV_AT_EPOCH":337,"BSTAR":0.00022088458,"MEAN_MOTION_DOT":0.00043123,"MEAN_MOTION_DDOT":0},{"OBJECT_NAME":"STARLINK-36966","OBJECT_ID":"2026-041E","EPOCH":"2026-03-15T22:00:01.999584","MEAN_MOTION":15.75284081,"ECCENTRICITY":0.00013842,"INCLINATION":53.1594,"RA_OF_ASC_NODE":30.9321,"ARG_OF_PERICENTER":92.4802,"MEAN_ANOMALY":249.806,"EPHEMERIS_TYPE":0,"CLASSIFICATION_TYPE":"U","NORAD_CAT_ID":68044,"ELEMENT_SET_NO":999,"REV_AT_EPOCH":337,"BSTAR":-0.00044304973,"MEAN_MOTION_DOT":-0.00068144,"MEAN_MOTION_DDOT":0},{"OBJECT_NAME":"STARLINK-36864","OBJECT_ID":"2026-041F","EPOCH":"2026-03-15T22:00:01.999584","MEAN_MOTION":15.75246733,"ECCENTRICITY":8.328e-5,"INCLINATION":53.1595,"RA_OF_ASC_NODE":30.9288,"ARG_OF_PERICENTER":89.0989,"MEAN_ANOMALY":255.0807,"EPHEMERIS_TYPE":0,"CLASSIFICATION_TYPE":"U","NORAD_CAT_ID":68045,"ELEMENT_SET_NO":999,"REV_AT_EPOCH":337,"BSTAR":-3.3593206e-5,"MEAN_MOTION_DOT":-5.786e-5,"MEAN_MOTION_DDOT":0},{"OBJECT_NAME":"STARLINK-36321","OBJECT_ID":"2026-041G","EPOCH":"2026-03-15T22:00:01.999584","MEAN_MOTION":15.80901239,"ECCENTRICITY":8.963e-5,"INCLINATION":53.159,"RA_OF_ASC_NODE":30.8735,"ARG_OF_PERICENTER":67.653,"MEAN_ANOMALY":303.5026,"EPHEMERIS_TYPE":0,"CLASSIFICATION_TYPE":"U","NORAD_CAT_ID":68046,"ELEMENT_SET_NO":999,"REV_AT_EPOCH":337,"BSTAR":-9.7297604e-5,"MEAN_MOTION_DOT":-0.00019882,"MEAN_MOTION_DDOT":0},{"OBJECT_NAME":"STARLINK-36181","OBJECT_ID":"2026-041H","EPOCH":"2026-03-15T22:00:01.999584","MEAN_MOTION":15.80847942,"ECCENTRICITY":0.00017403,"INCLINATION":53.1592,"RA_OF_ASC_NODE":30.8819,"ARG_OF_PERICENTER":131.6909,"MEAN_ANOMALY":235.1937,"EPHEMERIS_TYPE":0,"CLASSIFICATION_TYPE":"U","NORAD_CAT_ID":68047,"ELEMENT_SET_NO":999,"REV_AT_EPOCH":325,"BSTAR":0.00059650901,"MEAN_MOTION_DOT":0.00118526,"MEAN_MOTION_DDOT":0},{"OBJECT_NAME":"STARLINK-36318","OBJECT_ID":"2026-041J","EPOCH":"2026-03-15T22:00:01.999584","MEAN_MOTION":15.76373228,"ECCENTRICITY":9.583e-5,"INCLINATION":53.1594,"RA_OF_ASC_NODE":30.8809,"ARG_OF_PERICENTER":103.4303,"MEAN_ANOMALY":263.9559,"EPHEMERIS_TYPE":0,"CLASSIFICATION_TYPE":"U","NORAD_CAT_ID":68048,"ELEMENT_SET_NO":999,"REV_AT_EPOCH":337,"BSTAR":-0.010018488,"MEAN_MOTION_DOT":-0.01429827,"MEAN_MOTION_DDOT":0},{"OBJECT_NAME":"STARLINK-36885","OBJECT_ID":"2026-041K","EPOCH":"2026-03-15T22:00:01.999584","MEAN_MOTION":15.75192457,"ECCENTRICITY":8.988e-5,"INCLINATION":53.1595,"RA_OF_ASC_NODE":30.8756,"ARG_OF_PERICENTER":96.7453,"MEAN_ANOMALY":273.1923,"EPHEMERIS_TYPE":0,"CLASSIFICATION_TYPE":"U","NORAD_CAT_ID":68049,"ELEMENT_SET_NO":999,"REV_AT_EPOCH":337,"BSTAR":0.00061987215,"MEAN_MOTION_DOT":0.0009526,"MEAN_MOTION_DDOT":0},{"OBJECT_NAME":"STARLINK-36945","OBJECT_ID":"2026-041L","EPOCH":"2026-03-15T22:00:01.999584","MEAN_MOTION":15.80902147,"ECCENTRICITY":0.00014377,"INCLINATION":53.1592,"RA_OF_ASC_NODE":30.8555,"ARG_OF_PERICENTER":72.1418,"MEAN_ANOMALY":307.55,"EPHEMERIS_TYPE":0,"CLASSIFICATION_TYPE":"U","NORAD_CAT_ID":68050,"ELEMENT_SET_NO":999,"REV_AT_EPOCH":337,"BSTAR":-1.6884309e-5,"MEAN_MOTION_DOT":-4.035e-5,"MEAN_MOTION_DDOT":0},{"OBJECT_NAME":"STARLINK-35911","OBJECT_ID":"2026-041M","EPOCH":"2026-03-15T22:00:01.999584","MEAN_MOTION":15.80835897,"ECCENTRICITY":0.00017219,"INCLINATION":53.1592,"RA_OF_ASC_NODE":30.8382,"ARG_OF_PERICENTER":53.6823,"MEAN_ANOMALY":334.5789,"EPHEMERIS_TYPE":0,"CLASSIFICATION_TYPE":"U","NORAD_CAT_ID":68051,"ELEMENT_SET_NO":999,"REV_AT_EPOCH":333,"BSTAR":0.00053642467,"MEAN_MOTION_DOT":0.00106305,"MEAN_MOTION_DDOT":0},{"OBJECT_NAME":"STARLINK-35808","OBJECT_ID":"2026-041N","EPOCH":"2026-03-15T22:00:01.999584","MEAN_MOTION":15.80917534,"ECCENTRICITY":0.00017774,"INCLINATION":53.1592,"RA_OF_ASC_NODE":30.8285,"ARG_OF_PERICENTER":56.0876,"MEAN_ANOMALY":336.4093,"EPHEMERIS_TYPE":0,"CLASSIFICATION_TYPE":"U","NORAD_CAT_ID":68052,"ELEMENT_SET_NO":999,"REV_AT_EPOCH":333,"BSTAR":-5.1404169e-5,"MEAN_MOTION_DOT":-0.00010855,"MEAN_MOTION_DDOT":0}]
