STARLINK-36388          
1 68037U 26040Y   26074.91668981 -.01859709  94048-3 -60343-2 0  9990
2 68037  97.2769  23.6490 0001148  88.5958 277.8610 15.90882137  3375
STARLINK-36895          
1 68038U 26040Z   26074.91668981 -.01670636  76923-3 -54527-2 0  9990
2 68038  97.2740  23.6413 0001195  95.5643 257.3744 15.90741035  3429
STARLINK-36373          
1 68039U 26040AA  26074.91668981 -.01654302  75515-3 -54052-2 0  9992
2 68039  97.2737  23.6398 0001202  93.4418 254.7524 15.90717561  3372
STARLINK-36711          
1 68040U 26041A   26074.91668981 -.00047971  00000+0 -31019-3 0  9994
2 68040  53.1595  30.9821 0001209  94.7924 223.6172 15.75264098  3371
STARLINK-36825          
1 68041U 26041B   26074.91668981  .00062170  00000+0  31637-3 0  9997
2 68041  53.1591  30.9163 0001521  91.5545 258.2464 15.80864644  3375
STARLINK-36925          
1 68042U 26041C   26074.91668981 -.00027761  00000+0 -17733-3 0  9998
2 68042  53.1597  30.9850 0001123 100.7146 215.8247 15.75262296  3370
STARLINK-36902          
1 68043U 26041D   26074.91668981  .00043123  00000+0  22088-3 0  9996
2 68043  53.1590  30.9090 0001382  64.0045 290.0569 15.80877363  3372
STARLINK-36966          
1 68044U 26041E   26074.91668981 -.00068144  00000+0 -44305-3 0  9995
2 68044  53.1594  30.9321 0001384  92.4802 249.8060 15.75284081  3373
STARLINK-36864          
1 68045U 26041F   26074.91668981 -.00005786  00000+0 -33593-4 0  9997
2 68045  53.1595  30.9288 0000832  89.0989 255.0807 15.75246733  3372
STARLINK-36321          
1 68046U 26041G   26074.91668981 -.00019882  00000+0 -97298-4 0  9992
2 68046  53.1590  30.8735 0000896  67.6530 303.5026 15.80901239  3375
STARLINK-36181          
1 68047U 26041H   26074.91668981  .00118526  00000+0  59651-3 0  9996
2 68047  53.1592  30.8819 0001740 131.6909 235.1937 15.80847942  3250
STARLINK-36318          
1 68048U 26041J   26074.91668981 -.01429827  00000+0 -10018-1 0  9991
2 68048  53.1594  30.8809 0000958 103.4303 263.9559 15.76373228  3375
STARLINK-36885          
1 68049U 26041K   26074.91668981  .00095260  00000+0  61987-3 0  9992
2 68049  53.1595  30.8756 0000898  96.7453 273.1923 15.75192457  3371
STARLINK-36945          
1 68050U 26041L   26074.91668981 -.00004035  00000+0 -16884-4 0  9993
2 68050  53.1592  30.8555 0001437  72.1418 307.5500 15.80902147  3370
STARLINK-35911          
1 68051U 26041M   26074.91668981  .00106305  00000+0  53642-3 0  9997
2 68051  53.1592  30.8382 0001721  53.6823 334.5789 15.80835897  3331
STARLINK-35808          
1 68052U 26041N   26074.91668981 -.00010855  00000+0 -51404-4 0  9999
2 68052  53.1592  30.8285 0001777  56.0876 336.4093 15.80917534  3338
